NORAD_CAT_ID,OBJECT_NAME,OBJECT_TYPE,EPOCH,MEAN_MOTION,ECCENTRICITY,INCLINATION,RA_OF_ASC_NODE,ARG_OF_PERICENTER,MEAN_ANOMALY,BSTAR,MEAN_MOTION_DOT,MEAN_MOTION_DDOT,TLE_LINE0,TLE_LINE1,TLE_LINE2,SEMIMAJOR_AXIS,PERIOD,APOGEE,PERIGEE,DECAYED
50175.0,STARLINK-3291,PAYLOAD,2022-08-08 12:54:09,15.08862922,0.0001547,53.2178,6.1313,62.0524,298.0625,0.00030712,4.606e-05,0.0,0 STARLINK-3291,1 50175U 21125V   22220.53760849  .00004606  00000-0  30712-3 0  9991,2 50175  53.2178   6.1313 0001547  62.0524 298.0625 15.08862922 38967,6917.81,95.436,540.746,538.605,0.0
50175.0,STARLINK-3291,PAYLOAD,2022-08-08 20:51:05,15.08859321,0.0002399,53.2178,4.6451,53.8355,306.2858,0.00043702,6.678e-05,0.0,0 STARLINK-3291,1 50175U 21125V   22220.86881118  .00006678  00000-0  43702-3 0  9994,2 50175  53.2178   4.6451 0002399  53.8355 306.2858 15.08859321 39015,6917.821,95.436,541.346,538.0269999999998,0.0
50175.0,STARLINK-3291,PAYLOAD,2022-08-09 03:12:37,15.08862795,0.0001843,53.2175,3.4549,58.3229,301.7943,0.00043503,6.646e-05,0.0,0 STARLINK-3291,1 50175U 21125V   22221.13376579  .00006646  00000-0  43503-3 0  9999,2 50175  53.2175   3.4549 0001843  58.3229 301.7943 15.08862795 38563,6917.811,95.436,540.951,538.401,0.0
50175.0,STARLINK-3291,PAYLOAD,2022-08-09 09:34:09,15.08849522,0.0001681,53.2175,2.2656,62.2567,297.8595,-1.6035e-05,-5.43e-06,0.0,0 STARLINK-3291,1 50175U 21125V   22221.39872579 -.00000543  00000-0 -16035-4 0  9991,2 50175  53.2175   2.2656 0001681  62.2567 297.8595 15.08849522 39098,6917.851,95.437,540.879,538.553,0.0
50175.0,STARLINK-3291,PAYLOAD,2022-08-09 19:06:28,15.08845057,0.0001847,53.2176,0.4813,53.2137,306.9025,2.5474e-05,1.17e-06,0.0,0 STARLINK-3291,1 50175U 21125V   22221.79616586  .00000117  00000-0  25474-4 0  9991,2 50175  53.2176   0.4813 0001847  53.2137 306.9025 15.08845057 39157,6917.865,95.437,541.008,538.452,0.0
50175.0,STARLINK-3291,PAYLOAD,2022-08-09 20:41:52,15.0883775,0.0001950999999999,53.2176,0.1828,62.3154,297.8036,-0.0001933,-3.363e-05,0.0,0 STARLINK-3291,1 50175U 21125V   22221.86240765 -.00003363  00000-0 -19330-3 0  9992,2 50175  53.2176   0.1828 0001951  62.3154 297.8036 15.08837750 38673,6917.887,95.438,541.102,538.403,0.0
50175.0,STARLINK-3291,PAYLOAD,2022-08-10 09:24:57,15.08817644,0.0001609,53.2191,357.8052,56.0071,304.1074,-0.00022624,-3.885e-05,0.0,0 STARLINK-3291,1 50175U 21125V   22222.39233740 -.00003885  00000-0 -22624-3 0  9995,2 50175  53.2191 357.8052 0001609  56.0071 304.1074 15.08817644 39247,6917.949000000001,95.439,540.927,538.701,0.0
50175.0,STARLINK-3291,PAYLOAD,2022-08-11 12:26:33,15.08820071,0.0001696,53.2187,352.7504,54.4409,305.6741,0.00020251,2.935e-05,0.0,0 STARLINK-3291,1 50175U 21125V   22223.51843805  .00002935  00000-0  20251-3 0  9996,2 50175  53.2187 352.7504 0001696  54.4409 305.6741 15.08820071 39415,6917.941,95.439,540.98,538.633,0.0
50175.0,STARLINK-3291,PAYLOAD,2022-08-11 18:48:05,15.08824225,0.0001706999999999,53.2186,351.5607,59.3414,300.7746,0.00021593,3.149e-05,0.0,0 STARLINK-3291,1 50175U 21125V   22223.78339985  .00003149  00000-0  21593-3 0  9992,2 50175  53.2186 351.5607 0001707  59.3414 300.7746 15.08824225 38963,6917.929,95.439,540.974,538.613,0.0
50175.0,STARLINK-3291,PAYLOAD,2022-08-12 13:52:43,15.08847964,0.000158,53.2181,347.9927,60.7366,299.3784,0.0006545,0.00010146,0.0,0 STARLINK-3291,1 50175U 21125V   22224.57827955  .00010146  00000-0  65450-3 0  9994,2 50175  53.2181 347.9927 0001580  60.7366 299.3784 15.08847964 39571,6917.856,95.437,540.814,538.628,0.0
50175.0,STARLINK-3291,PAYLOAD,2022-08-12 18:38:52,15.08855851,0.0001574,53.2182,347.1007,59.7897,300.3251,0.00072349,0.0001125,0.0,0 STARLINK-3291,1 50175U 21125V   22224.77699732  .00011250  00000-0  72349-3 0  9998,2 50175  53.2182 347.1007 0001574  59.7897 300.3251 15.08855851 39603,6917.831999999999,95.437,540.786,538.6080000000002,0.0
50175.0,STARLINK-3291,PAYLOAD,2022-08-13 13:43:29,15.08851059,0.0001571,53.218,343.5327,60.7248,299.3901,0.00013814,1.912e-05,0.0,0 STARLINK-3291,1 50175U 21125V   22225.57187153  .00001912  00000-0  13814-3 0  9992,2 50175  53.2180 343.5327 0001571  60.7248 299.3901 15.08851059 39723,6917.847,95.437,540.798,538.625,0.0
50175.0,STARLINK-3291,PAYLOAD,2022-08-13 20:05:02,15.08839771,0.0001702,53.2179,342.3436,54.0368,306.0782,-9.2128e-05,-1.754e-05,0.0,0 STARLINK-3291,1 50175U 21125V   22225.83683480 -.00001754  00000-0 -92128-4 0  9997,2 50175  53.2179 342.3436 0001702  54.0368 306.0782 15.08839771 39768,6917.880999999999,95.438,540.924,538.569,0.0
50175.0,STARLINK-3291,PAYLOAD,2022-08-14 11:58:53,15.08840265,0.0001246,53.2178,339.37,58.3504,301.761,-3.301e-05,-8.13e-06,0.0,0 STARLINK-3291,1 50175U 21125V   22226.49923329 -.00000813  00000-0 -33010-4 0  9999,2 50175  53.2178 339.3700 0001246  58.3504 301.7610 15.08840265 39862,6917.88,95.438,540.607,538.883,0.0
50175.0,STARLINK-3291,PAYLOAD,2022-08-14 19:55:49,15.08846558,0.0001575999999999,53.2178,337.8831,54.2236,305.8903,0.00011904,1.607e-05,0.0,0 STARLINK-3291,1 50175U 21125V   22226.83043266  .00001607  00000-0  11904-3 0  9997,2 50175  53.2178 337.8831 0001576  54.2236 305.8903 15.08846558 39426,6917.86,95.437,540.816,538.635,0.0
50175.0,STARLINK-3291,PAYLOAD,2022-08-15 11:49:40,15.08843893,0.0001351999999999,53.2176,334.909,56.0397,304.0724,0.00016585,2.353e-05,0.0,0 STARLINK-3291,1 50175U 21125V   22227.49283300  .00002353  00000-0  16585-3 0  9994,2 50175  53.2176 334.9090 0001352  56.0397 304.0724 15.08843893 40017,6917.868,95.437,540.669,538.798,0.0
50175.0,STARLINK-3291,PAYLOAD,2022-08-15 13:25:03,15.08842603,0.000135,53.2176,334.6118,55.6293,304.4827,0.0001443,2.01e-05,0.0,0 STARLINK-3291,1 50175U 21125V   22227.55907360  .00002010  00000-0  14430-3 0  9997,2 50175  53.2176 334.6118 0001350  55.6293 304.4827 15.08842603 39534,6917.871999999999,95.437,540.6709999999998,538.804,0.0
50175.0,STARLINK-3291,PAYLOAD,2022-08-15 18:11:13,15.08841581,0.0001359,53.2175,333.72,55.2362,304.8758,0.00013386,1.843e-05,0.0,0 STARLINK-3291,1 50175U 21125V   22227.75779443  .00001843  00000-0  13386-3 0  9990,2 50175  53.2175 333.7200 0001359  55.2362 304.8758 15.08841581 40057,6917.876,95.437,540.681,538.8,0.0
50175.0,STARLINK-3291,PAYLOAD,2022-08-16 11:40:27,15.08849698,0.0001434,53.2174,330.4491,53.0484,307.0639,0.00024642,3.637e-05,0.0,0 STARLINK-3291,1 50175U 21125V   22228.48643131  .00003637  00000-0  24642-3 0  9995,2 50175  53.2174 330.4491 0001434  53.0484 307.0639 15.08849698 40169,6917.851,95.437,540.7080000000002,538.724,0.0
50175.0,STARLINK-3291,PAYLOAD,2022-08-16 16:26:36,15.08852581,0.0001452,53.2173,329.5569,54.8388,305.274,0.0002898,4.329e-05,0.0,0 STARLINK-3291,1 50175U 21125V   22228.68514939  .00004329  00000-0  28980-3 0  9998,2 50175  53.2173 329.5569 0001452  54.8388 305.2740 15.08852581 40196,6917.842,95.437,540.711,538.702,0.0
50175.0,STARLINK-3291,PAYLOAD,2022-08-17 11:31:14,15.08848784,0.0001588,53.2175,325.9887,56.9714,303.1431,0.00027154,4.037e-05,0.0,0 STARLINK-3291,1 50175U 21125V   22229.48003005  .00004037  00000-0  27154-3 0  9992,2 50175  53.2175 325.9887 0001588  56.9714 303.1431 15.08848784 39829,6917.854,95.437,540.817,538.62,0.0
50175.0,STARLINK-3291,PAYLOAD,2022-08-17 13:06:37,15.08849938,0.0001591,53.2175,325.6913,57.017,303.0975,0.00028192,4.203e-05,0.0,0 STARLINK-3291,1 50175U 21125V   22229.54626939  .00004203  00000-0  28192-3 0  9994,2 50175  53.2175 325.6913 0001591  57.0170 303.0975 15.08849938 40329,6917.85,95.437,540.816,538.614,0.0
50175.0,STARLINK-3291,PAYLOAD,2022-08-18 12:57:24,15.0885042,0.0001602,53.2174,321.2309,60.7998,299.3154,9.2802e-05,1.19e-05,0.0,0 STARLINK-3291,1 50175U 21125V   22230.53986216  .00001190  00000-0  92802-4 0  9994,2 50175  53.2174 321.2309 0001602  60.7998 299.3154 15.08850420 40471,6917.849,95.437,540.822,538.605,0.0
50175.0,STARLINK-3291,PAYLOAD,2022-08-18 17:43:33,15.08853938,0.0001569,53.2183,320.3387,60.8327,299.2822,9.8118e-05,1.274e-05,0.0,0 STARLINK-3291,1 50175U 21125V   22230.73857743  .00001274  00000-0  98118-4 0  9997,2 50175  53.2183 320.3387 0001569  60.8327 299.2822 15.08853938 40508,6917.8380000000025,95.437,540.788,538.617,0.0
50175.0,STARLINK-3291,PAYLOAD,2022-08-19 11:12:47,15.08847871,0.0001519,53.2182,317.068,58.1998,301.9142,4.2595e-05,3.9e-06,0.0,0 STARLINK-3291,1 50175U 21125V   22231.46721716  .00000390  00000-0  42595-4 0  9994,2 50175  53.2182 317.0680 0001519  58.1998 301.9142 15.08847871 40612,6917.856,95.437,540.7719999999998,538.6709999999998,0.0
50175.0,STARLINK-3291,PAYLOAD,2022-08-19 12:48:10,15.08847873,0.0001509,53.2182,316.7707,59.0837,301.0303,5.9139e-05,6.54e-06,0.0,0 STARLINK-3291,1 50175U 21125V   22231.53345609  .00000654  00000-0  59139-4 0  9990,2 50175  53.2182 316.7707 0001509  59.0837 301.0303 15.08847873 40138,6917.856,95.437,540.765,538.677,0.0
50175.0,STARLINK-3291,PAYLOAD,2022-08-19 14:23:33,15.08857785,0.0001485,53.2181,316.4742,53.6477,306.4652,-0.00021045,-3.637e-05,0.0,0 STARLINK-3291,1 50175U 21125V   22231.59969729 -.00003637  00000-0 -21045-3 0  9991,2 50175  53.2181 316.4742 0001485  53.6477 306.4652 15.08857785 40630,6917.826,95.436,540.7180000000002,538.664,0.0
50175.0,STARLINK-3291,PAYLOAD,2022-08-20 06:17:25,15.088393300000002,0.0001604,53.218,313.4997,54.9024,305.2118,3.8398e-06,-2.27e-06,0.0,0 STARLINK-3291,1 50175U 21125V   22232.26210290 -.00000227  00000-0  38398-5 0  9990,2 50175  53.2180 313.4997 0001604  54.9024 305.2118 15.08839330 40240,6917.882,95.438,540.857,538.638,0.0
50175.0,STARLINK-3291,PAYLOAD,2022-08-20 11:03:34,15.08841229,0.000166,53.2181,312.6084,54.1153,305.9993,2.3838e-05,9.1e-07,0.0,0 STARLINK-3291,1 50175U 21125V   22232.46082104  .00000091  00000-0  23838-4 0  9993,2 50175  53.2181 312.6084 0001660  54.1153 305.9993 15.08841229 40761,6917.877,95.437,540.89,538.5930000000002,0.0
